METEOR-M2 4             
1 59051U 24039A   26172.54463940  .00000004  00000+0  21415-4 0  9991
2 59051  98.7012 131.7880 0007535 149.0442 211.1182 14.22429890119885
